CCSDS_OEM_VERS = 1.0
CREATION_DATE  = 2017-05-11T12:00:23
ORIGINATOR     = GMAT USER

META_START
OBJECT_NAME          = MOPSSat_alt_35785_km_RAAN_270_101
OBJECT_ID            = SatId
CENTER_NAME          = Earth
REF_FRAME            = EME2000
TIME_SYSTEM          = UTC
START_TIME           = 2017-01-01T00:00:00.000
USEABLE_START_TIME   = 2017-01-01T00:00:00.000
USEABLE_STOP_TIME    = 2017-01-02T00:00:00.000
STOP_TIME            = 2017-01-02T00:00:00.000
INTERPOLATION        = Lagrange
INTERPOLATION_DEGREE = 7 
META_STOP


                                                                                   

2017-01-01T14:40:00.000  -2.533655345930784e+04   3.781316199975532e+04  -4.419885782497360e+02  -2.258038253255036e+00  -1.720422490687402e+00  -3.929114590603940e-02
2017-01-01T14:40:10.000  -2.535912848628688e+04   3.779594978513145e+04  -4.423813960704783e+02  -2.256966926820970e+00  -1.722020315227445e+00  -3.927241448800663e-02
2017-01-01T14:40:20.000  -2.538169279444122e+04   3.777872159513411e+04  -4.427740264802713e+02  -2.255894524788026e+00  -1.723617593073784e+00  -3.925366435086965e-02
2017-01-01T14:40:30.000  -2.540424637301558e+04   3.776147743523370e+04  -4.431664692919364e+02  -2.254821047261927e+00  -1.725214323581271e+00  -3.923489549651448e-02
2017-01-01T14:40:40.000  -2.542678921128079e+04   3.774421731088806e+04  -4.435587243187506e+02  -2.253746494347449e+00  -1.726810506106284e+00  -3.921610792681065e-02
2017-01-01T14:40:50.000  -2.544932129858719e+04   3.772694122750067e+04  -4.439507913753739e+02  -2.252670866145828e+00  -1.728406140010523e+00  -3.919730164356578e-02
2017-01-01T14:41:00.000  -2.547184262428429e+04   3.770964919048280e+04  -4.443426702764522e+02  -2.251594162758626e+00  -1.730001224655308e+00  -3.917847664859316e-02
2017-01-01T14:41:10.000  -2.549435317771270e+04   3.769234120526000e+04  -4.447343608364779e+02  -2.250516384288137e+00  -1.731595759401016e+00  -3.915963294371884e-02
2017-01-01T14:41:20.000  -2.551685294818109e+04   3.767501727728823e+04  -4.451258628693872e+02  -2.249437530838380e+00  -1.733189743605453e+00  -3.914077053079913e-02
2017-01-01T14:41:30.000  -2.553934192494902e+04   3.765767741206886e+04  -4.455171761882628e+02  -2.248357602516058e+00  -1.734783176622618e+00  -3.912188941173716e-02
2017-01-01T14:41:40.000  -2.556182009729270e+04   3.764032161509737e+04  -4.459083006064772e+02  -2.247276599427339e+00  -1.736376057807384e+00  -3.910298958842674e-02
2017-01-01T14:41:50.000  -2.558428745420989e+04   3.762294989209346e+04  -4.462992359325590e+02  -2.246194521692212e+00  -1.737968386494551e+00  -3.908407106300327e-02
2017-01-01T14:42:00.000  -2.560674398477785e+04   3.760556224872237e+04  -4.466899819764196e+02  -2.245111369427114e+00  -1.739560162024235e+00  -3.906513383754012e-02
2017-01-01T14:42:10.000  -2.562918967802002e+04   3.758815869069848e+04  -4.470805385470347e+02  -2.244027142751389e+00  -1.741151383732418e+00  -3.904617791416139e-02
2017-01-01T14:42:20.000  -2.565162452342252e+04   3.757073922338504e+04  -4.474709054614322e+02  -2.242941841762350e+00  -1.742742050987558e+00  -3.902720329460600e-02
2017-01-01T14:42:30.000  -2.567404851041893e+04   3.755330385219316e+04  -4.478610825357246e+02  -2.241855466560135e+00  -1.744332163154068e+00  -3.900820998066237e-02
2017-01-01T14:42:40.000  -2.569646162850721e+04   3.753585258249180e+04  -4.482510695871462e+02  -2.240768017242104e+00  -1.745921719600606e+00  -3.898919797407022e-02
2017-01-01T14:42:50.000  -2.571886386695796e+04   3.751838541983146e+04  -4.486408664289748e+02  -2.239679493916768e+00  -1.747510719679400e+00  -3.897016727676422e-02
2017-01-01T14:43:00.000  -2.574125521503142e+04   3.750090236977879e+04  -4.490304728743097e+02  -2.238589896693483e+00  -1.749099162741623e+00  -3.895111789069387e-02
2017-01-01T14:43:10.000  -2.576363566197692e+04   3.748340343791555e+04  -4.494198887360596e+02  -2.237499225682398e+00  -1.750687048137354e+00  -3.893204981782251e-02
2017-01-01T14:43:20.000  -2.578600519681911e+04   3.746588863000911e+04  -4.498091138232250e+02  -2.236407481005083e+00  -1.752274375200387e+00  -3.891296306031308e-02
2017-01-01T14:43:30.000  -2.580836380864647e+04   3.744835795178372e+04  -4.501981479459167e+02  -2.235314662780261e+00  -1.753861143268725e+00  -3.889385762027887e-02
2017-01-01T14:43:40.000  -2.583071148649741e+04   3.743081140901036e+04  -4.505869909133762e+02  -2.234220771129424e+00  -1.755447351676497e+00  -3.887473349988144e-02
2017-01-01T14:43:50.000  -2.585304821986474e+04   3.741324900711098e+04  -4.509756425427505e+02  -2.233125806152139e+00  -1.757032999789757e+00  -3.885559070089906e-02
2017-01-01T14:44:00.000  -2.587537399819115e+04   3.739567075155394e+04  -4.513641026503158e+02  -2.232029767950725e+00  -1.758618086970678e+00  -3.883642922515815e-02
2017-01-01T14:44:10.000  -2.589768881098347e+04   3.737807664776512e+04  -4.517523710534642e+02  -2.230932656624695e+00  -1.760202612585658e+00  -3.881724907443605e-02
2017-01-01T14:44:20.000  -2.591999264752214e+04   3.736046670135349e+04  -4.521404475656498e+02  -2.229834472284816e+00  -1.761786575984721e+00  -3.879805025070680e-02
2017-01-01T14:44:30.000  -2.594228549707736e+04   3.734284091794409e+04  -4.525283320001484e+02  -2.228735215042712e+00  -1.763369976516832e+00  -3.877883275595949e-02
2017-01-01T14:44:40.000  -2.596456734890848e+04   3.732519930317733e+04  -4.529160241700477e+02  -2.227634885010808e+00  -1.764952813529867e+00  -3.875959659219714e-02
2017-01-01T14:44:50.000  -2.598683819205120e+04   3.730754186288064e+04  -4.533035238845447e+02  -2.226533482313048e+00  -1.766535086355466e+00  -3.874034176162415e-02
2017-01-01T14:45:00.000  -2.600909801560476e+04   3.728986860283790e+04  -4.536908309539423e+02  -2.225431007070514e+00  -1.768116794329460e+00  -3.872106826639491e-02
2017-01-01T14:45:10.000  -2.603134680861865e+04   3.727217952888022e+04  -4.540779451876782e+02  -2.224327459407075e+00  -1.769697936783820e+00  -3.870177610871248e-02
2017-01-01T14:45:20.000  -2.605358456059473e+04   3.725447464648655e+04  -4.544648664030612e+02  -2.223222839424487e+00  -1.771278513082334e+00  -3.868246529039333e-02
2017-01-01T14:45:30.000  -2.607581126098498e+04   3.723675396118291e+04  -4.548515944165335e+02  -2.222117147227284e+00  -1.772858522584923e+00  -3.866313581330256e-02
2017-01-01T14:45:40.000  -2.609802689930530e+04   3.721901747845220e+04  -4.552381290456491e+02  -2.221010382917171e+00  -1.774437964655716e+00  -3.864378767925573e-02
2017-01-01T14:45:50.000  -2.612023146484619e+04   3.720126520396204e+04  -4.556244701040415e+02  -2.219902546607208e+00  -1.776016838642515e+00  -3.862442089026692e-02
2017-01-01T14:46:00.000  -2.614242494688802e+04   3.718349714339615e+04  -4.560106174051676e+02  -2.218793638411322e+00  -1.777595143892069e+00  -3.860503544836539e-02
2017-01-01T14:46:10.000  -2.616460733470035e+04   3.716571330245374e+04  -4.563965707622967e+02  -2.217683658444249e+00  -1.779172879750036e+00  -3.858563135559450e-02
2017-01-01T14:46:20.000  -2.618677861733013e+04   3.714791368702244e+04  -4.567823299848261e+02  -2.216572606832349e+00  -1.780750045545890e+00  -3.856620861420076e-02
2017-01-01T14:46:30.000  -2.620893878388764e+04   3.713009830294608e+04  -4.571678948832547e+02  -2.215460483699094e+00  -1.782326640613280e+00  -3.854676722638029e-02
2017-01-01T14:46:40.000  -2.623108782343144e+04   3.711226715611769e+04  -4.575532652671831e+02  -2.214347289170878e+00  -1.783902664281853e+00  -3.852730719438020e-02
2017-01-01T14:46:50.000  -2.625322572547675e+04   3.709442025207029e+04  -4.579384409541560e+02  -2.213233023351476e+00  -1.785478115913410e+00  -3.850782852005225e-02
2017-01-01T14:47:00.000  -2.627535247948570e+04   3.707655759638704e+04  -4.583234217607964e+02  -2.212117686347641e+00  -1.787052994865649e+00  -3.848833120530017e-02
2017-01-01T14:47:10.000  -2.629746807499903e+04   3.705867919459546e+04  -4.587082075050951e+02  -2.211001278262508e+00  -1.788627300501532e+00  -3.846881525196449e-02
2017-01-01T14:47:20.000  -2.631957250128176e+04   3.704078505245115e+04  -4.590927980002464e+02  -2.209883799213298e+00  -1.790201032164080e+00  -3.844928066213194e-02
2017-01-01T14:47:30.000  -2.634166574761581e+04   3.702287517570399e+04  -4.594771930597379e+02  -2.208765249316726e+00  -1.791774189197181e+00  -3.842972743788046e-02
2017-01-01T14:47:40.000  -2.636374780323459e+04   3.700494957015025e+04  -4.598613924962149e+02  -2.207645628692259e+00  -1.793346770940945e+00  -3.841015558133599e-02
2017-01-01T14:47:50.000  -2.638581865734154e+04   3.698700824161946e+04  -4.602453961218010e+02  -2.206524937461296e+00  -1.794918776733002e+00  -3.839056509465832e-02
2017-01-01T14:48:00.000  -2.640787829913144e+04   3.696905119595552e+04  -4.606292037484708e+02  -2.205403175745992e+00  -1.796490205910033e+00  -3.837095598002041e-02
2017-01-01T14:48:10.000  -2.642992671779847e+04   3.695107843901045e+04  -4.610128151881869e+02  -2.204280343668858e+00  -1.798061057808344e+00  -3.835132823960149e-02
2017-01-01T14:48:20.000  -2.645196390261540e+04   3.693308997658070e+04  -4.613962302542814e+02  -2.203156441348793e+00  -1.799631331769497e+00  -3.833168187551741e-02
2017-01-01T14:48:30.000  -2.647398984288054e+04   3.691508581444910e+04  -4.617794487605314e+02  -2.202031468903698e+00  -1.801201027136548e+00  -3.831201688986696e-02
2017-01-01T14:48:40.000  -2.649600452791792e+04   3.689706595838531e+04  -4.621624705211610e+02  -2.200905426450506e+00  -1.802770143254044e+00  -3.829233328473162e-02
2017-01-01T14:48:50.000  -2.651800794712933e+04   3.687903041410201e+04  -4.625452953517472e+02  -2.199778314102442e+00  -1.804338679471750e+00  -3.827263106212828e-02
2017-01-01T14:49:00.000  -2.654000008991584e+04   3.686097918731992e+04  -4.629279230678565e+02  -2.198650131973089e+00  -1.805906635139048e+00  -3.825291022408000e-02
